TIANMU-1 08             
1 57400U 23101B   26066.00237819  .00000346  00000+0  14775-4 0  9993
2 57400  97.2717 118.7901 0006380 134.2174 225.9592 15.29204229146020
STARLINK-32929          
1 63021U 25032S   26068.13819920  .00032135  00000+0  11722-2 0  9997
2 63021  43.0033 339.3401 0001609 273.9739  86.0929 15.27578336 60531
